{
    "CCSDS_OMM_VERS": "3.0",
    "COMMENT": "GENERATED VIA SPACE-TRACK.ORG API",
    "CREATION_DATE": "2025-05-23T06:36:18",
    "ORIGINATOR": "18 SPCS",
    "OBJECT_NAME": "QZS-3",
    "OBJECT_ID": "2017-048A",
    "CENTER_NAME": "EARTH",
    "REF_FRAME": "TEME",
    "TIME_SYSTEM": "UTC",
    "MEAN_ELEMENT_THEORY": "SGP4",
    "EPOCH": "2025-05-23T04:27:16.763616",
    "MEAN_MOTION": "1.00275418",
    "ECCENTRICITY": "0.00026170",
    "INCLINATION": "0.0583",
    "RA_OF_ASC_NODE": "153.1843",
    "ARG_OF_PERICENTER": "273.6860",
    "MEAN_ANOMALY": "7.9644",
    "EPHEMERIS_TYPE": "0",
    "CLASSIFICATION_TYPE": "U",
    "NORAD_CAT_ID": "42917",
    "ELEMENT_SET_NO": "999",
    "REV_AT_EPOCH": "2845",
    "BSTAR": "0.00000000000000",
    "MEAN_MOTION_DOT": "-0.00000338",
    "MEAN_MOTION_DDOT": "0.0000000000000",
    "SEMIMAJOR_AXIS": "42163.714",
    "PERIOD": "1436.045",
    "APOAPSIS": "35796.613",
    "PERIAPSIS": "35774.544",
    "OBJECT_TYPE": "PAYLOAD",
    "RCS_SIZE": "LARGE",
    "COUNTRY_CODE": "JPN",
    "LAUNCH_DATE": "2017-08-19",
    "SITE": "TNSTA",
    "DECAY_DATE": null,
    "FILE": "4736662",
    "GP_ID": "288167317",
    "TLE_LINE0": "0 QZS-3",
    "TLE_LINE1": "1 42917U 17048A   25143.18561069 -.00000338  00000-0  00000+0 0  9998",
    "TLE_LINE2": "2 42917   0.0583 153.1843 0002617 273.6860   7.9644  1.00275418 28451"
}